STARLINK-5120           
1 53982U 22125U   25133.69915381  .00001685  00000+0  12396-3 0  9998
2 53982  53.2167 120.8640 0001331  86.2496 273.8649 15.08837235144164
STARLINK-5103           
1 53983U 22125V   25133.74418436  .00001946  00000+0  14028-3 0  9998
2 53983  53.2170 110.4623 0001571  89.8931 270.2241 15.08853062144327
STARLINK-5142           
1 53984U 22125W   25133.24651938  .00000453  00000+0  46547-4 0  9994
2 53984  53.2170 123.0153 0001323  91.7248 268.3896 15.08837917144105
STARLINK-5147           
1 53985U 22125X   25133.25383286  .00008491  00000+0  54988-3 0  9991
2 53985  53.2159 123.0618 0001583 103.4335 256.6833 15.08912181144103
STARLINK-5119           
1 53986U 22125Y   25133.33202615 -.00000312  00000+0 -15389-5 0  9997
2 53986  53.2165 112.1567 0001435  87.2809 272.8348 15.08838832144251
STARLINK-5113           
1 53988U 22125AA  25133.24283191  .00001110  00000+0  87841-4 0  9993
2 53988  53.2161 122.9941 0001345  83.7879 276.3266 15.08843349144091
STARLINK-5118           
1 53991U 22125AD  25133.89142795  .00001370  00000+0  10415-3 0  9992
2 53991  53.2169 109.8976 0001090 100.6284 259.4831 15.08839473144331
STARLINK-5108           
1 53992U 22125AE  25133.96042080 -.00000434  00000+0 -91641-5 0  9991
2 53992  53.2173 119.6507 0001286  91.8166 268.2974 15.08840083144204
STARLINK-5121           
1 53993U 22125AF  25133.27453576  .00001195  00000+0  93160-4 0  9992
2 53993  53.2164 117.4860 0001339  89.7635 270.3511 15.08837980144178
STARLINK-5125           
1 53994U 22125AG  25133.94936788  .00000646  00000+0  58652-4 0  9995
2 53994  53.2164 119.5820 0001157  88.9175 271.1950 15.08841071144213
STARLINK-5097           
1 53995U 22125AH  25133.36057813  .00000352  00000+0  40200-4 0  9999
2 53995  53.2168 122.3075 0001525  92.0167 268.1000 15.08839955144117
STARLINK-5131           
1 53996U 22125AJ  25133.68073582  .00002028  00000+0  14548-3 0  9993
2 53996  53.2157 120.7518 0000885  87.0188 273.0905 15.08832253144174
STARLINK-5130           
1 53997U 22125AK  25133.31737348  .00000765  00000+0  66175-4 0  9991
2 53997  53.2162 112.7695 0001344  90.0022 270.1125 15.08835718144250
STARLINK-5128           
1 53998U 22125AL  25133.67335375  .00000120  00000+0  25645-4 0  9997
2 53998  53.2158 120.7066 0001364  88.6639 271.4510 15.08836997144179
STARLINK-5079           
1 53999U 22125AM  25133.35688836  .00000927  00000+0  76299-4 0  9992
2 53999  53.2165 122.2797 0001291  86.4970 273.6170 15.08841953144128
STARLINK-5088           
1 54000U 22125AN  25133.90984849  .00001115  00000+0  88137-4 0  9994
2 54000  53.2166 110.0699 0001246  83.3215 276.7919 15.08837818144341
STARLINK-5109           
1 54002U 22125AQ  25133.93187969  .00001123  00000+0  88661-4 0  9998
2 54002  53.2175 109.5194 0001350  88.6287 271.4860 15.08836373144352
STARLINK-5114           
1 54003U 22125AR  25133.27958927  .00001632  00000+0  12057-3 0  9996
2 54003  53.2157 122.5131 0001257  91.4866 268.6270 15.08850042144116
STARLINK-5129           
1 54004U 22125AS  25133.26856982  .00021089  00000+0  13435-2 0  9992
2 54004  53.2161 122.4454 0002112  92.0719 268.0515 15.08720438144115
STARLINK-5135           
1 54005U 22125AT  25133.66967150  .00000548  00000+0  52547-4 0  9993
2 54005  53.2160 120.6823 0001347  90.0668 270.0479 15.08836791144173
STARLINK-5096           
1 54006U 22125AU  25133.65492980  .00000320  00000+0  38179-4 0  9990
2 54006  53.2165 120.5993 0001343  84.2022 275.9124 15.08837807144160
STARLINK-5132           
1 54007U 22125AV  25133.66232379 -.00002327  00000+0 -12829-3 0  9990
2 54007  53.2162 120.6406 0000870  84.7276 275.3815 15.08813980144176
STARLINK-5145           
1 54008U 22125AW  25133.65954139 -.00000555  00000+0 -16808-4 0  9998
2 54008  53.2168 110.6472 0001427  91.3378 268.7778 15.08841684144313
STARLINK-5099           
1 54009U 22125AX  25133.65861973 -.00000155  00000+0  83817-5 0  9992
2 54009  53.2168 120.6168 0001473  90.8811 269.2350 15.08825461144221
STARLINK-5127           
1 54010U 22125AY  25133.65217395  .00000260  00000+0  34412-4 0  9999
2 54010  53.2156 110.6121 0001342  88.9259 271.1887 15.08835530144312
STARLINK-5124           
1 54011U 22125AZ  25133.90616585  .00000061  00000+0  21912-4 0  9992
2 54011  53.2168 110.0495 0001747  91.7954 268.3238 15.08834898144344
STARLINK-5126           
1 54012U 22125BA  25133.35044985  .00001331  00000+0  10170-3 0  9995
2 54012  53.2161 112.2702 0001239  90.3023 269.8111 15.08835964144263
STARLINK-5098           
1 54013U 22125BB  25133.35781446 -.00000044  00000+0  15353-4 0  9996
2 54013  53.2165 112.3155 0001383  90.2671 269.8480 15.08838293144266
STARLINK-5055           
1 54015U 22125BD  25133.95029658 -.00000359  00000+0 -44808-5 0  9992
2 54015  53.2160 109.6138 0001306  90.2267 269.8875 15.08833583144354
STARLINK-5195           
1 54051U 22136A   25133.64305953  .00000133  00000+0  26421-4 0  9993
2 54051  53.2176 251.3259 0001256  80.6144 279.4990 15.08834626141543
STARLINK-5189           
1 54052U 22136B   25133.59516711  .00000531  00000+0  51467-4 0  9994
2 54052  53.2163 211.1090 0001169  85.2392 274.8734 15.08834429142105
STARLINK-5176           
1 54053U 22136C   25133.63933194  .00004253  00000+0  28485-3 0  9996
2 54053  53.2172 251.3046 0000793 123.4967 236.6101 15.08875863141546
STARLINK-5163           
1 54054U 22136D   25133.76448186  .00001139  00000+0  89652-4 0  9997
2 54054  53.2182 250.6636 0001089  95.9695 264.1421 15.08834538141562
STARLINK-5158           
1 54055U 22136E   25133.70193144  .00000198  00000+0  30514-4 0  9990
2 54055  53.2184 250.9831 0001424  76.5040 283.6110 15.08832426141551
STARLINK-5226           
1 54056U 22136F   25133.64665697  .00009939  00000+0  64155-3 0  9990
2 54056  53.2167 250.6521 0001271  93.6082 266.5056 15.08847586141554
STARLINK-5167           
1 54058U 22136H   25133.55471515 -.00000383  00000+0 -59853-5 0  9993
2 54058  53.2192 251.4883 0001385  96.4241 263.6909 15.08826437141533
STARLINK-5173           
1 54059U 22136J   25133.62463718 -.00000758  00000+0 -29545-4 0  9998
2 54059  53.2188 251.2166 0001172 104.0215 256.0908 15.08832392141545
STARLINK-5169           
1 54060U 22136K   25133.64944654  .00000548  00000+0  52533-4 0  9993
2 54060  53.2163 220.7034 0001267 113.6594 246.4531 15.08822432141972
STARLINK-5209           
1 54061U 22136L   25133.50456901 -.00004935  00000+0 -28439-3 0  9995
2 54061  53.2170 216.1926 0002065  57.8394 302.2799 15.09796724142023
STARLINK-5170           
1 54062U 22136M   25133.61726381  .00000575  00000+0  54234-4 0  9997
2 54062  53.2185 251.1659 0001813  59.1834 300.9337 15.08834975141545
STARLINK-5225           
1 54063U 22136N   25133.61358422  .00002867  00000+0  19824-3 0  9996
2 54063  53.2171 251.1426 0001175  95.0825 265.0301 15.08824751141546
STARLINK-5172           
1 54064U 22136P   25133.49815149 -.00000207  00000+0  50888-5 0  9991
2 54064  53.2178 206.9129 0001282  91.1450 268.9689 15.08831048142158
STARLINK-5187           
1 54065U 22136Q   25133.60620914  .00000696  00000+0  61834-4 0  9992
2 54065  53.2167 251.0956 0001198  92.5867 267.5262 15.08828162141546
STARLINK-5151           
1 54066U 22136R   25133.60989199  .00000347  00000+0  39863-4 0  9996
2 54066  53.2179 251.1187 0000893  85.4009 274.7085 15.08832893141546
STARLINK-5174           
1 54067U 22136S   25133.59883883 -.00001226  00000+0 -58945-4 0  9999
2 54067  53.2156 251.0494 0001601  97.6187 262.4987 15.08844531141549
STARLINK-5222           
1 54068U 22136T   25133.73500495 -.00001351  00000+0 -66786-4 0  9992
2 54068  53.2183 250.4782 0001315  92.6433 267.4710 15.08838228141561
STARLINK-5181           
1 54070U 22136V   25133.59147398  .00002896  00000+0  20008-3 0  9997
2 54070  53.2168 251.0084 0001206  90.0102 270.1028 15.08823574142026
STARLINK-5168           
1 54071U 22136W   25133.58778217 -.00000209  00000+0  49638-5 0  9996
2 54071  53.2173 250.9862 0001226  92.0532 268.0601 15.08838947142029
STARLINK-5146           
1 54073U 22136Y   25133.58640190  .00000308  00000+0  37386-4 0  9991
2 54073  53.2174 245.9927 0000404  99.8052 260.2986 15.08841751142091
STARLINK-5192           
1 54074U 22136Z   25133.65034126 -.00000095  00000+0  12139-4 0  9999
2 54074  53.2177 250.6654 0001322  91.2753 268.8390 15.08838401141550
STARLINK-5212           
1 54075U 22136AA  25133.58271700 -.00000142  00000+0  91608-5 0  9995
2 54075  53.2169 245.9695 0001276  76.8384 283.2751 15.08838514141615
STARLINK-5201           
1 54076U 22136AB  25133.70658935 -.00000663  00000+0 -23560-4 0  9999
2 54076  53.2167 250.9922 0001179 108.2238 251.8883 15.08826961141556
STARLINK-5171           
1 54077U 22136AC  25133.66291533  .00000063  00000+0  22067-4 0  9995
2 54077  53.2165 226.6259 0001299  90.6699 269.4442 15.08839496141896
STARLINK-5138           
1 54078U 22136AD  25133.67797224  .00000650  00000+0  58945-4 0  9991
2 54078  53.2170 230.8770 0001320  90.5867 269.5277 15.08844523141837
STARLINK-5175           
1 54079U 22136AE  25133.70649268  .00003482  00000+0  23653-3 0  9993
2 54079  53.2162 241.0200 0001134  86.9168 273.1954 15.08869648141699
STARLINK-5160           
1 54080U 22136AF  25133.70054254  .00000256  00000+0  34198-4 0  9993
2 54080  53.2169 245.9872 0001194  87.2555 272.8573 15.08840794141623
STARLINK-5165           
1 54081U 22136AG  25133.68073550 -.00004221  00000+0 -24715-3 0  9992
2 54081  53.2198 240.8599 0001574  97.3143 262.8029 15.08856181141692
STARLINK-5210           
1 54082U 22136AH  25133.57036680  .00000072  00000+0  22621-4 0  9997
2 54082  53.2170 241.5928 0001240  90.7580 269.3555 15.08835078141675
STARLINK-5178           
1 54083U 22136AJ  25133.55931139  .00001453  00000+0  10939-3 0  9991
2 54083  53.2172 241.5239 0000994  82.9739 277.1366 15.08834302141673
